{"type": "FeatureCollection", "features": [ {"type": "Feature", "properties": {"norad_id": 66630, "name": "STARLINK-35949", "group": "last-30-days", "lat": 27.525801669145824, "lon": -42.37233091649116, "alt_km": 414.60508958993705, "timestamp": "2025-12-18T07:01:53.340675+00:00", "meta": {"OBJECT_NAME": "STARLINK-35949", "OBJECT_ID": "2025-271P", "EPOCH": "2025-12-17T19:34:25.852800", "MEAN_MOTION": 15.49440345, "ECCENTRICITY": 6.752e-05, "INCLINATION": 53.1598, "RA_OF_ASC_NODE": 162.9104, "ARG_OF_PERICENTER": 90.8947, "MEAN_ANOMALY": 269.2139, "EPHEMERIS_TYPE": 0, "CLASSIFICATION_TYPE": "U", "NORAD_CAT_ID": 66630, "ELEMENT_SET_NO": 999, "REV_AT_EPOCH": 499, "BSTAR": 0.001552486, "MEAN_MOTION_DOT": 0.00087268, "MEAN_MOTION_DDOT": 0}, "tle": {"line1": "1 66630U 25271P   25351.81557700  .00087268  00000+0  15525-2 0  9997", "line2": "2 66630  53.1598 162.9104 0000675  90.8947 269.2139 15.49440345  4995"}}, "geometry": {"type": "Point", "coordinates": [-42.37233091649116, 27.525801669145824]}}, {"type": "Feature", "properties": {"norad_id": 66631, "name": "STARLINK-35965", "group": "last-30-days", "lat": 26.469730187679666, "lon": -41.295833659828254, "alt_km": 415.78631155856783, "timestamp": "2025-12-18T07:01:53.340685+00:00", "meta": {"OBJECT_NAME": "STARLINK-35965", "OBJECT_ID": "2025-271Q", "EPOCH": "2025-12-17T19:33:57.897216", "MEAN_MOTION": 15.49252292, "ECCENTRICITY": 0.00013333, "INCLINATION": 53.1593, "RA_OF_ASC_NODE": 162.9089, "ARG_OF_PERICENTER": 57.8715, "MEAN_ANOMALY": 302.2423, "EPHEMERIS_TYPE": 0, "CLASSIFICATION_TYPE": "U", "NORAD_CAT_ID": 66631, "ELEMENT_SET_NO": 999, "REV_AT_EPOCH": 499, "BSTAR": 2.905355e-05, "MEAN_MOTION_DOT": 1.165e-05, "MEAN_MOTION_DDOT": 0}, "tle": {"line1": "1 66631U 25271Q   25351.81525344  .00001165  00000+0  29054-4 0  9993", "line2": "2 66631  53.1593 162.9089 0001333  57.8715 302.2423 15.49252292  4997"}}, "geometry": {"type": "Point", "coordinates": [-41.295833659828254, 26.469730187679666]}}, {"type": "Feature", "properties": {"norad_id": 66632, "name": "STARLINK-35973", "group": "last-30-days", "lat": 21.241937622683082, "lon": 177.80655019252993, "alt_km": 444.6300432318776, "timestamp": "2025-12-18T07:01:53.340695+00:00", "meta": {"OBJECT_NAME": "STARLINK-35973", "OBJECT_ID": "2025-271R", "EPOCH": "2025-12-17T22:00:01.999584", "MEAN_MOTION": 15.3958013, "ECCENTRICITY": 0.00011935, "INCLINATION": 53.1584, "RA_OF_ASC_NODE": 162.6357, "ARG_OF_PERICENTER": 92.2571, "MEAN_ANOMALY": 7.9778, "EPHEMERIS_TYPE": 0, "CLASSIFICATION_TYPE": "U", "NORAD_CAT_ID": 66632, "ELEMENT_SET_NO": 999, "REV_AT_EPOCH": 501, "BSTAR": 0.0018146305, "MEAN_MOTION_DOT": 0.00072784, "MEAN_MOTION_DDOT": 0}, "tle": {"line1": "1 66632U 25271R   25351.91668981  .00072784  00000+0  18146-2 0  9993", "line2": "2 66632  53.1584 162.6357 0001193  92.2571   7.9778 15.39580130  5010"}}, "geometry": {"type": "Point", "coordinates": [177.80655019252993, 21.241937622683082]}}, {"type": "Feature", "properties": {"norad_id": 66633, "name": "STARLINK-35948", "group": "last-30-days", "lat": 22.63481599298249, "lon": 179.0751855950669, "alt_km": 444.3531512811305, "timestamp": "2025-12-18T07:01:53.340708+00:00", "meta": {"OBJECT_NAME": "STARLINK-35948", "OBJECT_ID": "2025-271S", "EPOCH": "2025-12-17T22:00:01.999584", "MEAN_MOTION": 15.39579936, "ECCENTRICITY": 0.00011349, "INCLINATION": 53.1584, "RA_OF_ASC_NODE": 162.631, "ARG_OF_PERICENTER": 88.099, "MEAN_ANOMALY": 13.9599, "EPHEMERIS_TYPE": 0, "CLASSIFICATION_TYPE": "U", "NORAD_CAT_ID": 66633, "ELEMENT_SET_NO": 999, "REV_AT_EPOCH": 507, "BSTAR": 0.0017949121, "MEAN_MOTION_DOT": 0.00071981, "MEAN_MOTION_DDOT": 0}, "tle": {"line1": "1 66633U 25271S   25351.91668981  .00071981  00000+0  17949-2 0  9992", "line2": "2 66633  53.1584 162.6310 0001134  88.0990  13.9599 15.39579936  5079"}}, "geometry": {"type": "Point", "coordinates": [179.0751855950669, 22.63481599298249]}}, {"type": "Feature", "properties": {"norad_id": 66634, "name": "STARLINK-35967", "group": "last-30-days", "lat": 40.65168987487446, "lon": -159.12142685202423, "alt_km": 441.19357884705187, "timestamp": "2025-12-18T07:01:53.340718+00:00", "meta": {"OBJECT_NAME": "STARLINK-35967", "OBJECT_ID": "2025-271T", "EPOCH": "2025-12-17T22:00:01.999584", "MEAN_MOTION": 15.39597163, "ECCENTRICITY": 8.458e-05, "INCLINATION": 53.1596, "RA_OF_ASC_NODE": 162.5788, "ARG_OF_PERICENTER": 52.1627, "MEAN_ANOMALY": 75.5826, "EPHEMERIS_TYPE": 0, "CLASSIFICATION_TYPE": "U", "NORAD_CAT_ID": 66634, "ELEMENT_SET_NO": 999, "REV_AT_EPOCH": 500, "BSTAR": 0.0021337342, "MEAN_MOTION_DOT": 0.0008585, "MEAN_MOTION_DDOT": 0}, "tle": {"line1": "1 66634U 25271T   25351.91668981  .00085850  00000+0  21337-2 0  9999", "line2": "2 66634  53.1596 162.5788 0000845  52.1627  75.5826 15.39597163  5000"}}, "geometry": {"type": "Point", "coordinates": [-159.12142685202423, 40.65168987487446]}}, {"type": "Feature", "properties": {"norad_id": 66635, "name": "STARLINK-35955", "group": "last-30-days", "lat": 50.22384743547466, "lon": -83.5342987660404, "alt_km": 439.73884976262434, "timestamp": "2025-12-18T07:01:53.340728+00:00", "meta": {"OBJECT_NAME": "STARLINK-35955", "OBJECT_ID": "2025-271U", "EPOCH": "2025-12-17T22:00:01.999584", "MEAN_MOTION": 15.39553677, "ECCENTRICITY": 0.00011892, "INCLINATION": 53.1598, "RA_OF_ASC_NODE": 162.477, "ARG_OF_PERICENTER": 83.5381, "MEAN_ANOMALY": 95.8186, "EPHEMERIS_TYPE": 0, "CLASSIFICATION_TYPE": "U", "NORAD_CAT_ID": 66635, "ELEMENT_SET_NO": 999, "REV_AT_EPOCH": 507, "BSTAR": 0.0020622341, "MEAN_MOTION_DOT": 0.00082807, "MEAN_MOTION_DDOT": 0}, "tle": {"line1": "1 66635U 25271U   25351.91668981  .00082807  00000+0  20622-2 0  9995", "line2": "2 66635  53.1598 162.4770 0001189  83.5381  95.8186 15.39553677  5073"}}, "geometry": {"type": "Point", "coordinates": [-83.5342987660404, 50.22384743547466]}}, {"type": "Feature", "properties": {"norad_id": 66636, "name": "STARLINK-35968", "group": "last-30-days", "lat": 52.04950785308846, "lon": -125.23679523724334, "alt_km": 439.79536990485576, "timestamp": "2025-12-18T07:01:53.340743+00:00", "meta": {"OBJECT_NAME": "STARLINK-35968", "OBJECT_ID": "2025-271V", "EPOCH": "2025-12-17T22:00:01.999584", "MEAN_MOTION": 15.3957238, "ECCENTRICITY": 6.247e-05, "INCLINATION": 53.16, "RA_OF_ASC_NODE": 162.5279, "ARG_OF_PERICENTER": 93.5664, "MEAN_ANOMALY": 59.9177, "EPHEMERIS_TYPE": 0, "CLASSIFICATION_TYPE": "U", "NORAD_CAT_ID": 66636, "ELEMENT_SET_NO": 999, "REV_AT_EPOCH": 507, "BSTAR": 0.0018454956, "MEAN_MOTION_DOT": 0.00074022, "MEAN_MOTION_DDOT": 0}, "tle": {"line1": "1 66636U 25271V   25351.91668981  .00074022  00000+0  18455-2 0  9997", "line2": "2 66636  53.1600 162.5279 0000624  93.5664  59.9177 15.39572380  5074"}}, "geometry": {"type": "Point", "coordinates": [-125.23679523724334, 52.04950785308846]}}, {"type": "Feature", "properties": {"norad_id": 66637, "name": "STARLINK-35953", "group": "last-30-days", "lat": 37.07983189124797, "lon": -53.859133740351076, "alt_km": 437.38474993447835, "timestamp": "2025-12-18T07:01:53.340754+00:00", "meta": {"OBJECT_NAME": "STARLINK-35953", "OBJECT_ID": "2025-271W", "EPOCH": "2025-12-17T22:00:01.999584", "MEAN_MOTION": 15.42724815, "ECCENTRICITY": 0.00017033, "INCLINATION": 53.1597, "RA_OF_ASC_NODE": 162.4341, "ARG_OF_PERICENTER": 52.2869, "MEAN_ANOMALY": 148.715, "EPHEMERIS_TYPE": 0, "CLASSIFICATION_TYPE": "U", "NORAD_CAT_ID": 66637, "ELEMENT_SET_NO": 999, "REV_AT_EPOCH": 507, "BSTAR": -0.044964506, "MEAN_MOTION_DOT": -0.01799366, "MEAN_MOTION_DDOT": 0}, "tle": {"line1": "1 66637U 25271W   25351.91668981 -.01799366  00000+0 -44965-1 0  9990", "line2": "2 66637  53.1597 162.4341 0001703  52.2869 148.7150 15.42724815  5071"}}, "geometry": {"type": "Point", "coordinates": [-53.859133740351076, 37.07983189124797]}}, {"type": "Feature", "properties": {"norad_id": 66638, "name": "STARLINK-35972", "group": "last-30-days", "lat": 16.039825361033298, "lon": -31.85221542978125, "alt_km": 417.38970962771145, "timestamp": "2025-12-18T07:01:53.340766+00:00", "meta": {"OBJECT_NAME": "STARLINK-35972", "OBJECT_ID": "2025-271X", "EPOCH": "2025-12-17T19:30:29.230848", "MEAN_MOTION": 15.49326435, "ECCENTRICITY": 9.546e-05, "INCLINATION": 53.1593, "RA_OF_ASC_NODE": 162.8921, "ARG_OF_PERICENTER": 44.6162, "MEAN_ANOMALY": 315.4923, "EPHEMERIS_TYPE": 0, "CLASSIFICATION_TYPE": "U", "NORAD_CAT_ID": 66638, "ELEMENT_SET_NO": 999, "REV_AT_EPOCH": 499, "BSTAR": 0.00099464163, "MEAN_MOTION_DOT": 0.00055296, "MEAN_MOTION_DDOT": 0}, "tle": {"line1": "1 66638U 25271X   25351.81283832  .00055296  00000+0  99464-3 0  9998", "line2": "2 66638  53.1593 162.8921 0000954  44.6162 315.4923 15.49326435  4998"}}, "geometry": {"type": "Point", "coordinates": [-31.85221542978125, 16.039825361033298]}}, {"type": "Feature", "properties": {"norad_id": 66639, "name": "STARLINK-35908", "group": "last-30-days", "lat": 14.53268054723759, "lon": -30.615648886816164, "alt_km": 417.24543871779406, "timestamp": "2025-12-18T07:01:53.340776+00:00", "meta": {"OBJECT_NAME": "STARLINK-35908", "OBJECT_ID": "2025-271Y", "EPOCH": "2025-12-17T19:29:59.552448", "MEAN_MOTION": 15.49327209, "ECCENTRICITY": 9.86e-05, "INCLINATION": 53.1597, "RA_OF_ASC_NODE": 162.8893, "ARG_OF_PERICENTER": 80.3039, "MEAN_ANOMALY": 279.8082, "EPHEMERIS_TYPE": 0, "CLASSIFICATION_TYPE": "U", "NORAD_CAT_ID": 66639, "ELEMENT_SET_NO": 999, "REV_AT_EPOCH": 499, "BSTAR": 0.0010017215, "MEAN_MOTION_DOT": 0.00055697, "MEAN_MOTION_DDOT": 0}, "tle": {"line1": "1 66639U 25271Y   25351.81249482  .00055697  00000+0  10017-2 0  9993", "line2": "2 66639  53.1597 162.8893 0000986  80.3039 279.8082 15.49327209  4995"}}, "geometry": {"type": "Point", "coordinates": [-30.615648886816164, 14.53268054723759]}}]}